NORAD_CAT_ID,OBJECT_NAME,OBJECT_TYPE,EPOCH,MEAN_MOTION,ECCENTRICITY,INCLINATION,RA_OF_ASC_NODE,ARG_OF_PERICENTER,MEAN_ANOMALY,BSTAR,MEAN_MOTION_DOT,MEAN_MOTION_DDOT,TLE_LINE0,TLE_LINE1,TLE_LINE2,SEMIMAJOR_AXIS,PERIOD,APOGEE,PERIGEE,DECAYED
51757.0,STARLINK-3459,PAYLOAD,2024-01-12 23:51:45,15.08833288,0.0001282,53.2151,240.7444,89.1258,270.9881,-2.1504e-05,-6.3e-06,0.0,0 STARLINK-3459,1 51757U 22016AV  24012.99427715 -.00000630  00000-0 -21504-4 0  9996,2 51757  53.2151 240.7444 0001282  89.1258 270.9881 15.08833288104944,6917.901,95.438,540.653,538.879,0.0
51757.0,STARLINK-3459,PAYLOAD,2024-01-13 23:42:32,15.08848528,0.0001262,53.2153,236.2833,90.1233,269.9904,0.00018522,2.662e-05,0.0,0 STARLINK-3459,1 51757U 22016AV  24013.98787168  .00002662  00000-0  18522-3 0  9997,2 51757  53.2153 236.2833 0001262  90.1233 269.9904 15.08848528106209,6917.854,95.437,540.592,538.846,0.0
51757.0,STARLINK-3459,PAYLOAD,2024-01-14 18:47:10,15.08837334,0.0001326,53.2155,232.7136,90.0244,270.09,0.00015614,2.198e-05,0.0,0 STARLINK-3459,1 51757U 22016AV  24014.78275954  .00002198  00000-0  15614-3 0  9994,2 51757  53.2155 232.7136 0001326  90.0244 270.0900 15.08837334106325,6917.889,95.438,540.671,538.836,0.0
51757.0,STARLINK-3459,PAYLOAD,2024-01-14 21:57:56,15.08840684,0.0001331,53.2152,232.1194,89.8167,270.2977,0.00019797,2.864e-05,0.0,0 STARLINK-3459,1 51757U 22016AV  24014.91523844  .00002864  00000-0  19797-3 0  9999,2 51757  53.2152 232.1194 0001331  89.8167 270.2977 15.08840684105233,6917.878,95.438,540.664,538.823,0.0
51757.0,STARLINK-3459,PAYLOAD,2024-01-15 13:51:47,15.08840557,0.0001342,53.2144,229.1459,98.0565,262.0579,2.5664e-05,1.21e-06,0.0,0 STARLINK-3459,1 51757U 22016AV  24015.57763731  .00000121  00000-0  25664-4 0  9998,2 51757  53.2144 229.1459 0001342  98.0565 262.0579 15.08840557105337,6917.879,95.438,540.672,538.815,0.0
51757.0,STARLINK-3459,PAYLOAD,2024-01-15 20:13:20,15.08845341,0.0001343,53.2146,227.9573,97.8402,262.2743,7.3083e-05,8.76e-06,0.0,0 STARLINK-3459,1 51757U 22016AV  24015.84259528  .00000876  00000-0  73083-4 0  9997,2 51757  53.2146 227.9573 0001343  97.8402 262.2743 15.08845341105375,6917.864,95.437,540.658,538.8,0.0
51757.0,STARLINK-3459,PAYLOAD,2024-01-15 23:24:06,15.0884754,0.0001345,53.2147,227.3623,97.1249,262.9896,0.00010637,1.406e-05,0.0,0 STARLINK-3459,1 51757U 22016AV  24015.97507382  .00001406  00000-0  10637-3 0  9990,2 51757  53.2147 227.3623 0001345  97.1249 262.9896 15.08847540106505,6917.857,95.437,540.653,538.792,0.0
51757.0,STARLINK-3459,PAYLOAD,2024-01-16 20:04:07,15.08835867,0.0001318,53.2153,223.4967,103.8222,256.2917,6.401e-06,-1.86e-06,0.0,0 STARLINK-3459,1 51757U 22016AV  24016.83620361 -.00000186  00000-0  64010-5 0  9990,2 51757  53.2153 223.4967 0001318 103.8222 256.2917 15.08835867106639,6917.893,95.438,540.67,538.846,0.0
51757.0,STARLINK-3459,PAYLOAD,2024-01-17 19:54:54,15.08847528,0.0001339,53.2157,219.0352,98.0426,262.0718,5.7842e-05,6.33e-06,0.0,0 STARLINK-3459,1 51757U 22016AV  24017.82979496  .00000633  00000-0  57842-4 0  9996,2 51757  53.2157 219.0352 0001339  98.0426 262.0718 15.08847528106783,6917.857,95.437,540.649,538.796,0.0
51757.0,STARLINK-3459,PAYLOAD,2024-01-18 13:24:09,15.08839526,0.0001423,53.2161,215.7647,76.2082,283.9069,7.1227e-05,8.46e-06,0.0,0 STARLINK-3459,1 51757U 22016AV  24018.55844120  .00000846  00000-0  71227-4 0  9991,2 51757  53.2161 215.7647 0001423  76.2082 283.9069 15.08839526105787,6917.882,95.438,540.731,538.762,0.0
51757.0,STARLINK-3459,PAYLOAD,2024-01-18 18:10:18,15.08839385,0.0001336,53.2163,214.8714,89.3891,270.7254,6.3681e-05,7.26e-06,0.0,0 STARLINK-3459,1 51757U 22016AV  24018.75716078  .00000726  00000-0  63681-4 0  9995,2 51757  53.2163 214.8714 0001336  89.3891 270.7254 15.08839385106920,6917.882,95.438,540.671,538.823,0.0
51757.0,STARLINK-3459,PAYLOAD,2024-01-19 11:39:33,15.08841786,0.0001332,53.216,211.6008,91.8727,268.2418,3.4364e-05,2.59e-06,0.0,0 STARLINK-3459,1 51757U 22016AV  24019.48580032  .00000259  00000-0  34364-4 0  9992,2 51757  53.2160 211.6008 0001332  91.8727 268.2418 15.08841786105921,6917.875,95.437,540.661,538.818,0.0
51757.0,STARLINK-3459,PAYLOAD,2024-01-19 18:01:05,15.08844103,0.0001313,53.2158,210.4117,90.1251,269.9892,4.7425e-05,4.67e-06,0.0,0 STARLINK-3459,1 51757U 22016AV  24019.75075743  .00000467  00000-0  47425-4 0  9993,2 51757  53.2158 210.4117 0001313  90.1251 269.9892 15.08844103105963,6917.868,95.437,540.641,538.825,0.0
51757.0,STARLINK-3459,PAYLOAD,2024-01-20 19:27:16,15.08835799,0.0001269,53.2156,205.6545,87.3545,272.7592,2.4497e-05,1.02e-06,0.0,0 STARLINK-3459,1 51757U 22016AV  24020.81060424  .00000102  00000-0  24497-4 0  9992,2 51757  53.2156 205.6545 0001269  87.3545 272.7592 15.08835799107238,6917.893,95.438,540.636,538.88,0.0
51757.0,STARLINK-3459,PAYLOAD,2024-01-20 22:38:02,15.08835825,0.0001274,53.2157,205.06,84.2166,275.8972,2.1618e-05,5.6e-07,0.0,0 STARLINK-3459,1 51757U 22016AV  24020.94308453  .00000056  00000-0  21618-4 0  9993,2 51757  53.2157 205.0600 0001274  84.2166 275.8972 15.08835825106141,6917.893,95.438,540.639,538.877,0.0
51757.0,STARLINK-3459,PAYLOAD,2024-01-21 20:53:25,15.08844735,0.0001257,53.2156,200.897,86.6845,273.4291,7.6015e-05,9.22e-06,0.0,0 STARLINK-3459,1 51757U 22016AV  24021.87043722  .00000922  00000-0  76015-4 0  9994,2 51757  53.2156 200.8970 0001257  86.6845 273.4291 15.08844735106287,6917.866,95.437,540.6,538.861,0.0
51757.0,STARLINK-3459,PAYLOAD,2024-01-22 11:11:54,15.08836581,0.0001241,53.2155,198.22,100.8043,259.3089,5.9652e-05,6.62e-06,0.0,0 STARLINK-3459,1 51757U 22016AV  24022.46660268  .00000662  00000-0  59652-4 0  9999,2 51757  53.2155 198.2200 0001241 100.8043 259.3089 15.08836581107485,6917.891,95.438,540.614,538.897,0.0
51757.0,STARLINK-3459,PAYLOAD,2024-01-22 19:08:50,15.08839043,0.0001227,53.2156,196.7338,92.9208,267.1924,7.3536e-05,8.83e-06,0.0,0 STARLINK-3459,1 51757U 22016AV  24022.79780165  .00000883  00000-0  73536-4 0  9996,2 51757  53.2156 196.7338 0001227  92.9208 267.1924 15.08839043106423,6917.883,95.438,540.597,538.899,0.0
51757.0,STARLINK-3459,PAYLOAD,2024-01-23 15:48:50,15.08841404,0.0001197,53.2156,192.8673,105.9906,254.1218,2.9065e-05,1.75e-06,0.0,0 STARLINK-3459,1 51757U 22016AV  24023.65892116  .00000175  00000-0  29065-4 0  9994,2 51757  53.2156 192.8673 0001197 105.9906 254.1218 15.08841404107661,6917.876,95.437,540.569,538.913,0.0
51757.0,STARLINK-3459,PAYLOAD,2024-01-23 17:24:13,15.08842333,0.0001229,53.2157,192.5697,101.0362,259.0768,2.6743e-05,1.38e-06,0.0,0 STARLINK-3459,1 51757U 22016AV  24023.72516035  .00000138  00000-0  26743-4 0  9994,2 51757  53.2157 192.5697 0001229 101.0362 259.0768 15.08842333106568,6917.873,95.437,540.588,538.888,0.0
51757.0,STARLINK-3459,PAYLOAD,2024-01-24 17:15:01,15.08841256,0.000138,53.2162,188.11,75.7519,284.3626,4.2723e-05,3.92e-06,0.0,0 STARLINK-3459,1 51757U 22016AV  24024.71876264  .00000392  00000-0  42723-4 0  9995,2 51757  53.2162 188.1100 0001380  75.7519 284.3626 15.08841256107820,6917.877,95.437,540.696,538.787,0.0
51757.0,STARLINK-3459,PAYLOAD,2024-01-25 13:55:02,15.08835462,0.0001425,53.2166,184.2484,95.1171,264.9984,8.4457e-06,-1.54e-06,0.0,0 STARLINK-3459,1 51757U 22016AV  24025.57988810 -.00000154  00000-0  84457-5 0  9999,2 51757  53.2166 184.2484 0001425  95.1171 264.9984 15.08835462106840,6917.894,95.438,540.745,538.773,0.0
51757.0,STARLINK-3459,PAYLOAD,2024-01-25 17:05:48,15.08836794,0.0001298,53.2161,183.6495,94.6216,265.4924,1.5054e-05,-4.8e-07,0.0,0 STARLINK-3459,1 51757U 22016AV  24025.71236664 -.00000048  00000-0  15054-4 0  9996,2 51757  53.2161 183.6495 0001298  94.6216 265.4924 15.08836794107976,6917.89,95.438,540.653,538.857,0.0
51757.0,STARLINK-3459,PAYLOAD,2024-01-26 13:45:48,15.0883985,0.0001288,53.2162,179.7832,100.6697,259.444,8.9987e-05,1.145e-05,0.0,0 STARLINK-3459,1 51757U 22016AV  24026.57348227  .00001145  00000-0  89987-4 0  9994,2 51757  53.2162 179.7832 0001288 100.6697 259.4440 15.08839850106991,6917.881,95.438,540.637,538.855,0.0
51757.0,STARLINK-3459,PAYLOAD,2024-01-26 16:56:34,15.08843223,0.0001305,53.2164,179.1887,90.4223,269.6919,0.00011266,1.506e-05,0.0,0 STARLINK-3459,1 51757U 22016AV  24026.70596010  .00001506  00000-0  11266-3 0  9999,2 51757  53.2164 179.1887 0001305  90.4223 269.6919 15.08843223108128,6917.871,95.437,540.638,538.833,0.0
51757.0,STARLINK-3459,PAYLOAD,2024-01-27 10:25:50,15.08830484,0.0001471,53.2174,175.918,76.5557,283.5599,0.00012577,1.714e-05,0.0,0 STARLINK-3459,1 51757U 22016AV  24027.43460884  .00001714  00000-0  12577-3 0  9996,2 51757  53.2174 175.9180 0001471  76.5557 283.5599 15.08830484108234,6917.909,95.438,540.792,538.757,0.0
51757.0,STARLINK-3459,PAYLOAD,2024-01-27 13:36:36,15.0883627,0.000134,53.2178,175.3224,89.2434,270.8712,-2.9138e-07,-2.93e-06,0.0,0 STARLINK-3459,1 51757U 22016AV  24027.56708997 -.00000293  00000-0 -29138-6 0  9997,2 51757  53.2178 175.3224 0001340  89.2434 270.8712 15.08836270107145,6917.892,95.438,540.684,538.83,0.0
51757.0,STARLINK-3459,PAYLOAD,2024-01-27 15:11:59,15.08841879,0.0001304,53.2178,175.0245,89.6263,270.4879,-7.4407e-05,-1.472e-05,0.0,0 STARLINK-3459,1 51757U 22016AV  24027.63332919 -.00001472  00000-0 -74407-4 0  9999,2 51757  53.2178 175.0245 0001304  89.6263 270.4879 15.08841879107151,6917.875,95.437,540.642,538.838,0.0
51757.0,STARLINK-3459,PAYLOAD,2024-01-28 13:27:23,15.08841233,0.0001471,53.2174,170.8637,109.1275,250.9877,-6.3848e-05,-1.304e-05,0.0,0 STARLINK-3459,1 51757U 22016AV  24028.56069064 -.00001304  00000-0 -63848-4 0  9991,2 51757  53.2174 170.8637 0001471 109.1275 250.9877 15.08841233107291,6917.877,95.437,540.759,538.724,0.0
51757.0,STARLINK-3459,PAYLOAD,2024-01-28 15:02:46,15.08841783,0.0001333,53.2174,170.5681,100.9328,259.1814,-3.3227e-05,-8.17e-06,0.0,0 STARLINK-3459,1 51757U 22016AV  24028.62692964 -.00000817  00000-0 -33227-4 0  9995,2 51757  53.2174 170.5681 0001333 100.9328 259.1814 15.08841783108419,6917.875,95.437,540.662,538.818,0.0
